{
  "norad_id": 58632,
  "name": "STARLINK-31081",
  "history": [
    {
      "epoch": "2026-03-28T16:03:41.929056Z",
      "apogee_km": 484.0876786062736,
      "perigee_km": 482.09243377833263,
      "latitude_deg": 4.7358546859068265e-05,
      "longitude_deg": -103.63021814114103,
      "height_km": 482.8103866942596,
      "semi_major_axis_km": 6861.227056192302,
      "eccentricity": 0.0001454,
      "inclination_deg": 43.0047,
      "raan_deg": 323.3808,
      "arg_perigee_deg": 273.2721,
      "mean_anomaly_deg": 86.7965,
      "mean_motion_rev_day": 15.27566321
    },
    {
      "epoch": "2026-03-28T23:54:27.722016Z",
      "apogee_km": 483.94042965822337,
      "perigee_km": 482.07008227924507,
      "latitude_deg": -3.9541790065620036e-05,
      "longitude_deg": 136.50905909921659,
      "height_km": 482.8157896806673,
      "semi_major_axis_km": 6861.1422559687335,
      "eccentricity": 0.0001363,
      "inclination_deg": 43.0036,
      "raan_deg": 321.5332,
      "arg_perigee_deg": 267.9493,
      "mean_anomaly_deg": 92.1202,
      "mean_motion_rev_day": 15.27594641
    },
    {
      "epoch": "2026-03-29T23:26:49.343136Z",
      "apogee_km": 484.09862317114494,
      "perigee_km": 482.0537071993931,
      "latitude_deg": 3.3641265783682916e-05,
      "longitude_deg": 136.91372332180563,
      "height_km": 482.7630814177564,
      "semi_major_axis_km": 6861.213165185269,
      "eccentricity": 0.00014902,
      "inclination_deg": 43.0022,
      "raan_deg": 315.9946,
      "arg_perigee_deg": 275.0561,
      "mean_anomaly_deg": 85.0121,
      "mean_motion_rev_day": 15.2757096
    },
    {
      "epoch": "2026-03-30T15:08:23.397504Z",
      "apogee_km": 484.03142841617864,
      "perigee_km": 482.1134459301102,
      "latitude_deg": -5.956620872311305e-05,
      "longitude_deg": -102.81264863189693,
      "height_km": 482.68310320935217,
      "semi_major_axis_km": 6861.209437173144,
      "eccentricity": 0.00013977,
      "inclination_deg": 43.0028,
      "raan_deg": 312.3047,
      "arg_perigee_deg": 279.9898,
      "mean_anomaly_deg": 80.0795,
      "mean_motion_rev_day": 15.27572205
    },
    {
      "epoch": "2026-03-30T21:25:00.971040Z",
      "apogee_km": 484.0792860576785,
      "perigee_km": 482.0590725102511,
      "latitude_deg": -2.40090760447173e-05,
      "longitude_deg": 161.2957416952043,
      "height_km": 482.6748911443238,
      "semi_major_axis_km": 6861.206179283965,
      "eccentricity": 0.00014722,
      "inclination_deg": 43.0029,
      "raan_deg": 310.8274,
      "arg_perigee_deg": 279.7685,
      "mean_anomaly_deg": 80.3,
      "mean_motion_rev_day": 15.27573293
    },
    {
      "epoch": "2026-03-31T14:40:44.431104Z",
      "apogee_km": 484.09229837472503,
      "perigee_km": 482.03531037357334,
      "latitude_deg": -3.68187390932915e-05,
      "longitude_deg": -102.40658269817762,
      "height_km": 482.6012608881863,
      "semi_major_axis_km": 6861.200804374149,
      "eccentricity": 0.0001499,
      "inclination_deg": 43.0023,
      "raan_deg": 306.7651,
      "arg_perigee_deg": 283.4708,
      "mean_anomaly_deg": 76.5976,
      "mean_motion_rev_day": 15.27575088
    },
    {
      "epoch": "2026-04-01T20:29:43.000224Z",
      "apogee_km": 484.02174860787,
      "perigee_km": 482.1157056568727,
      "latitude_deg": 6.976313827388862e-06,
      "longitude_deg": 162.1100169362463,
      "height_km": 482.64756409241664,
      "semi_major_axis_km": 6861.205727132371,
      "eccentricity": 0.0001389,
      "inclination_deg": 43.0022,
      "raan_deg": 299.7502,
      "arg_perigee_deg": 281.9975,
      "mean_anomaly_deg": 78.0721,
      "mean_motion_rev_day": 15.27573444
    },
    {
      "epoch": "2026-04-02T20:02:03.048000Z",
      "apogee_km": 483.4221981795008,
      "perigee_km": 482.6304199336355,
      "latitude_deg": 4.289846690419188e-05,
      "longitude_deg": 162.51461525205534,
      "height_km": 482.93610287931506,
      "semi_major_axis_km": 6861.163309056568,
      "eccentricity": 5.77e-05,
      "inclination_deg": 42.9971,
      "raan_deg": 294.205,
      "arg_perigee_deg": 250.185,
      "mean_anomaly_deg": 109.894,
      "mean_motion_rev_day": 15.2758761
    },
    {
      "epoch": "2026-04-02T20:02:03.048864Z",
      "apogee_km": 483.4218551213362,
      "perigee_km": 482.630762991801,
      "latitude_deg": 3.919108351834215e-05,
      "longitude_deg": 162.5146076880999,
      "height_km": 482.9359866050033,
      "semi_major_axis_km": 6861.163309056568,
      "eccentricity": 5.765e-05,
      "inclination_deg": 42.9971,
      "raan_deg": 294.205,
      "arg_perigee_deg": 250.185,
      "mean_anomaly_deg": 109.894,
      "mean_motion_rev_day": 15.2758761
    },
    {
      "epoch": "2026-04-03T13:17:46.290336Z",
      "apogee_km": 483.3735543821158,
      "perigee_km": 482.69731722684173,
      "latitude_deg": 5.1901618548095715e-05,
      "longitude_deg": -101.1852771021398,
      "height_km": 482.903507222118,
      "semi_major_axis_km": 6861.1724358044785,
      "eccentricity": 4.928e-05,
      "inclination_deg": 42.996,
      "raan_deg": 290.1442,
      "arg_perigee_deg": 254.0947,
      "mean_anomaly_deg": 105.9851,
      "mean_motion_rev_day": 15.27584562
    },
    {
      "epoch": "2026-04-04T20:40:54.193440Z",
      "apogee_km": 483.73131783250847,
      "perigee_km": 482.37417450071644,
      "latitude_deg": 5.531598228177916e-05,
      "longitude_deg": 139.360438218232,
      "height_km": 482.70371688800634,
      "semi_major_axis_km": 6861.189746166612,
      "eccentricity": 9.89e-05,
      "inclination_deg": 43.0002,
      "raan_deg": 282.7618,
      "arg_perigee_deg": 280.6493,
      "mean_anomaly_deg": 79.4248,
      "mean_motion_rev_day": 15.27578781
    },
    {
      "epoch": "2026-04-05T13:56:37.148928Z",
      "apogee_km": 484.0862120040192,
      "perigee_km": 482.01042899715503,
      "latitude_deg": 1.986716481167179e-05,
      "longitude_deg": -124.34060431867596,
      "height_km": 482.95727787837296,
      "semi_major_axis_km": 6861.185320500587,
      "eccentricity": 0.00015127,
      "inclination_deg": 43.0015,
      "raan_deg": 278.6987,
      "arg_perigee_deg": 262.6918,
      "mean_anomaly_deg": 97.3762,
      "mean_motion_rev_day": 15.27580259
    },
    {
      "epoch": "2026-04-05T18:39:05.065344Z",
      "apogee_km": 484.03095478328305,
      "perigee_km": 482.0530141056488,
      "latitude_deg": 5.117586680177254e-05,
      "longitude_deg": 163.74256970365772,
      "height_km": 483.0771250068914,
      "semi_major_axis_km": 6861.178984444466,
      "eccentricity": 0.00014414,
      "inclination_deg": 43.0035,
      "raan_deg": 277.5915,
      "arg_perigee_deg": 254.872,
      "mean_anomaly_deg": 105.1973,
      "mean_motion_rev_day": 15.27582375
    },
    {
      "epoch": "2026-04-07T13:01:19.571232Z",
      "apogee_km": 484.23417461455665,
      "perigee_km": 481.877492100155,
      "latitude_deg": -1.512968076265208e-05,
      "longitude_deg": -123.52774932598784,
      "height_km": 482.90316177634946,
      "semi_major_axis_km": 6861.192833357355,
      "eccentricity": 0.00017174,
      "inclination_deg": 43.0041,
      "raan_deg": 267.6218,
      "arg_perigee_deg": 266.598,
      "mean_anomaly_deg": 93.4675,
      "mean_motion_rev_day": 15.2757775
    },
    {
      "epoch": "2026-04-08T12:33:40.298976Z",
      "apogee_km": 484.3257471576835,
      "perigee_km": 481.8068622004703,
      "latitude_deg": -3.719601282674165e-05,
      "longitude_deg": -123.11625752586703,
      "height_km": 482.893695583315,
      "semi_major_axis_km": 6861.203304679077,
      "eccentricity": 0.00018356,
      "inclination_deg": 43.0076,
      "raan_deg": 262.0864,
      "arg_perigee_deg": 267.7476,
      "mean_anomaly_deg": 92.3165,
      "mean_motion_rev_day": 15.27574253
    },
    {
      "epoch": "2026-04-09T16:48:28.929312Z",
      "apogee_km": 484.2550108815394,
      "perigee_km": 481.83342558237746,
      "latitude_deg": 2.750670430427803e-05,
      "longitude_deg": 165.370324981922,
      "height_km": 482.8678462591181,
      "semi_major_axis_km": 6861.181218231958,
      "eccentricity": 0.00017647,
      "inclination_deg": 43.0042,
      "raan_deg": 255.4356,
      "arg_perigee_deg": 267.8144,
      "mean_anomaly_deg": 92.2506,
      "mean_motion_rev_day": 15.27581629
    },
    {
      "epoch": "2026-04-11T15:53:11.229792Z",
      "apogee_km": 484.5634799773816,
      "perigee_km": 481.59668970989424,
      "latitude_deg": -5.063740569922835e-05,
      "longitude_deg": 166.18414349686276,
      "height_km": 482.7368328213014,
      "semi_major_axis_km": 6861.217084843637,
      "eccentricity": 0.0002162,
      "inclination_deg": 43.0055,
      "raan_deg": 244.3592,
      "arg_perigee_deg": 274.6856,
      "mean_anomaly_deg": 85.3748,
      "mean_motion_rev_day": 15.27569651
    },
    {
      "epoch": "2026-04-13T02:24:37.493280Z",
      "apogee_km": 483.6979887535135,
      "perigee_km": 482.47024184714155,
      "latitude_deg": 2.3946193789360914e-06,
      "longitude_deg": -1.2193808767802692,
      "height_km": 483.1347579994998,
      "semi_major_axis_km": 6861.221115300327,
      "eccentricity": 8.947e-05,
      "inclination_deg": 43.0034,
      "raan_deg": 236.2329,
      "arg_perigee_deg": 243.4779,
      "mean_anomaly_deg": 116.5981,
      "mean_motion_rev_day": 15.27568305
    },
    {
      "epoch": "2026-04-14T19:12:41.518656Z",
      "apogee_km": 484.1331898460803,
      "perigee_km": 481.94035870782045,
      "latitude_deg": 4.777698750984762e-05,
      "longitude_deg": 95.48635447130354,
      "height_km": 483.27102685768494,
      "semi_major_axis_km": 6861.17377427695,
      "eccentricity": 0.0001598,
      "inclination_deg": 43.0035,
      "raan_deg": 226.631,
      "arg_perigee_deg": 245.3557,
      "mean_anomaly_deg": 114.7129,
      "mean_motion_rev_day": 15.27584115
    }
  ]
}